      2.10          N: GNSS NAV DATA                        RINEX VERSION / TYPE
fic2rin                                 01/19/2023 00:17:46 PGM / RUN BY / DATE
                                                            END OF HEADER
12 23  1 18 10  0  0.0 -.329509377480D-03 -.454747350886D-11  .000000000000D+00
     .900000000000D+02  .120531250000D+03  .407516974718D-08 -.198283089037D+01
     .618770718575D-05  .884381565265D-02  .105164945126D-04  .515368110466D+04
     .295200000000D+06  .169500708580D-06  .260689182243D+01  .931322574615D-08
     .966809372291D+00  .178500000000D+03  .132585095291D+01 -.761567436626D-08
    -.236438420038D-09  .100000000000D+01  .224500000000D+04  .000000000000D+00
     .485000000000D+01  .000000000000D+00 -.125728547573D-07  .900000000000D+02
     .288000000000D+06  .400000000000D+01
26 23  1 18 10  0  0.0  .240472145379D-03  .568434188608D-12  .000000000000D+00
     .320000000000D+02  .717812500000D+02  .478841374237D-08 -.286179346274D+01
     .371038913727D-05  .778974441346D-02  .108331441879D-04  .515362981796D+04
     .295200000000D+06 -.242143869400D-07  .247287795533D+01 -.484287738800D-07
     .935103955450D+00  .158562500000D+03  .433227711502D+00 -.796890336538D-08
    -.293940815243D-09  .100000000000D+01  .224500000000D+04  .000000000000D+00
     .240000000000D+01  .000000000000D+00  .698491930962D-08  .320000000000D+02
     .288000000000D+06  .400000000000D+01
29 23  1 18 10  0  0.0 -.581085681915D-03 -.227373675443D-11  .000000000000D+00
     .119000000000D+03  .100000000000D+03  .414874424042D-08  .162956706228D+01
     .516511499882D-05  .212645914871D-02  .259466469288D-05  .515359777260D+04
     .295200000000D+06 -.149011611938D-07 -.262411799588D+01  .242143869400D-07
     .978387641818D+00  .337656250000D+03  .241931689641D+01 -.817712632442D-08
     .210365905441D-09  .100000000000D+01  .224500000000D+04  .000000000000D+00
     .340000000000D+01  .000000000000D+00 -.102445483208D-07  .119000000000D+03
     .288000000000D+06  .400000000000D+01
16 23  1 18 10  0  0.0 -.523474998772D-03  .125055521494D-11  .000000000000D+00
     .910000000000D+02  .944062500000D+02  .405909764914D-08  .247603072080D+01
     .479258596897D-05  .133199344855D-01  .105947256088D-04  .515377926636D+04
     .295200000000D+06 -.614672899246D-07  .262525535032D+01 -.229105353355D-06
     .966586765899D+00  .178343750000D+03  .753524632400D+00 -.761103131572D-08
    -.206794328100D-09  .100000000000D+01  .224500000000D+04  .000000000000D+00
     .340000000000D+01  .000000000000D+00 -.102445483208D-07  .910000000000D+02
     .288000000000D+06  .400000000000D+01
30 23  1 18 10  0  0.0 -.532950274646D-03  .102318153949D-11  .000000000000D+00
     .760000000000D+02  .562500000000D+00  .526129058244D-08 -.133398863515D+01
    -.119209289551D-06  .603405456059D-02  .727549195290D-05  .515364392662D+04
     .295200000000D+06  .124797224998D-06  .150045087667D+01 -.782310962677D-07
     .935139315643D+00  .223718750000D+03 -.266249309909D+01 -.819141263379D-08
    -.438946855327D-09  .100000000000D+01  .224500000000D+04  .000000000000D+00
     .240000000000D+01  .000000000000D+00  .372529029846D-08  .760000000000D+02
     .288000000000D+06  .400000000000D+01
15 23  1 18 10  0  0.0  .564660876989D-05  .329691829393D-11  .000000000000D+00
     .580000000000D+02 -.653125000000D+01  .552022993973D-08  .661992940789D+00
    -.987201929092D-07  .147297828225D-01  .828132033348D-05  .515365758514D+04
     .295200000000D+06 -.158324837685D-06  .305662179554D+00  .596046447754D-07
     .931912798617D+00  .208468750000D+03  .117478934594D+01 -.856499962376D-08
     .367515308488D-09  .100000000000D+01  .224500000000D+04  .000000000000D+00
     .240000000000D+01  .000000000000D+00 -.107102096081D-07  .580000000000D+02
     .288000000000D+06  .400000000000D+01
27 23  1 18 10  0  0.0  .124158337712D-03 -.932232069317D-11  .000000000000D+00
     .690000000000D+02  .102906250000D+03  .434982404477D-08  .165150010589D+01
     .528991222382D-05  .111548210261D-01  .345520675182D-05  .515366813087D+04
     .295200000000D+06 -.184401869774D-06 -.270266000923D+01  .160187482834D-06
     .969609229259D+00  .317562500000D+03  .689396670424D+00 -.830248868912D-08
     .140005831805D-09  .100000000000D+01  .224500000000D+04  .000000000000D+00
     .240000000000D+01  .000000000000D+00  .186264514923D-08  .690000000000D+02
     .288000000000D+06  .400000000000D+01
17 23  1 18 10  0  0.0  .694140791893D-03  .261479726760D-11  .000000000000D+00
     .610000000000D+02  .803437500000D+02  .418517432931D-08  .161021289748D+01
     .400841236115D-05  .137703667860D-01  .230409204960D-05  .515369947624D+04
     .295200000000D+06  .199303030968D-06 -.263790070448D+01 -.376254320145D-06
     .976204731051D+00  .338750000000D+03 -.142837214804D+01 -.810676625078D-08
     .229652423088D-09  .100000000000D+01  .224500000000D+04  .000000000000D+00
     .240000000000D+01  .000000000000D+00 -.111758708954D-07  .610000000000D+02
     .288000000000D+06  .400000000000D+01
13 23  1 18 10  0  0.0  .461349729449D-03  .636646291241D-11  .000000000000D+00
     .320000000000D+02 -.625000000000D+00  .470698177897D-08  .115949502457D+01
     .484287738800D-07  .675330008380D-02  .714696943760D-05  .515366000748D+04
     .295200000000D+06 -.856816768646D-07  .578778337835D+00  .819563865662D-07
     .969491661848D+00  .247156250000D+03  .945523067208D+00 -.799854745732D-08
     .270011247052D-09  .100000000000D+01  .224500000000D+04  .000000000000D+00
     .240000000000D+01  .000000000000D+00 -.111758708954D-07  .320000000000D+02
     .288000000000D+06  .400000000000D+01
25 23  1 18 10  0  0.0  .412343069911D-03  .341060513165D-11  .000000000000D+00
     .600000000000D+02  .980312500000D+02  .427374944739D-08 -.206011372332D+01
     .501424074173D-05  .111236782977D-01  .107083469629D-04  .515356606674D+04
     .295200000000D+06  .108033418655D-06  .252611802808D+01 -.104308128357D-06
     .954359345492D+00  .168062500000D+03  .101577350519D+01 -.766746223772D-08
    -.251081887140D-09  .100000000000D+01  .224500000000D+04  .000000000000D+00
     .240000000000D+01  .000000000000D+00  .558793544769D-08  .600000000000D+02
     .288000000000D+06  .400000000000D+01
22 23  1 18 10  0  0.0  .408383551985D-03  .795807864051D-11  .000000000000D+00
     .116000000000D+03  .437500000000D+00  .478662795370D-08  .136593619565D+01
    -.141561031342D-06  .137516786344D-01  .764429569244D-05  .515358293915D+04
     .295200000000D+06 -.342726707458D-06  .524700700599D+00 -.195577740669D-06
     .962342581614D+00  .237468750000D+03 -.183296440408D+01 -.814033907780D-08
     .393230665350D-09  .100000000000D+01  .224500000000D+04  .000000000000D+00
     .240000000000D+01  .000000000000D+00 -.791624188423D-08  .116000000000D+03
     .288000000000D+06  .400000000000D+01
23 23  1 18 10  0  0.0  .285170972347D-05  .125055521494D-11  .000000000000D+00
     .580000000000D+02 -.107687500000D+03  .406159775328D-08 -.148145301580D+01
    -.556744635105D-05  .297938752919D-02  .983476638794D-05  .515364926529D+04
     .295200000000D+06  .465661287308D-07 -.633785600994D+00 -.372529029846D-08
     .972206404779D+00  .196531250000D+03 -.312319593063D+01 -.769710632966D-08
     .271082720255D-09  .100000000000D+01  .224500000000D+04  .000000000000D+00
     .240000000000D+01  .000000000000D+00 -.838190317154D-08  .314000000000D+03
     .288000000000D+06  .400000000000D+01
14 23  1 18 10  0  0.0 -.469475053251D-04  .784439180279D-11  .000000000000D+00
     .176000000000D+03  .970000000000D+02  .439696886569D-08 -.194619217730D+01
     .500120222569D-05  .255257205572D-02  .991113483906D-05  .515366608620D+04
     .295200000000D+06 -.614672899246D-07  .257028023917D+01  .111758708954D-07
     .950136879689D+00  .184937500000D+03 -.307332627338D+01 -.781746848608D-08
    -.210723063176D-09  .100000000000D+01  .224500000000D+04  .000000000000D+00
     .240000000000D+01  .000000000000D+00 -.791624188423D-08  .688000000000D+03
     .288000000000D+06  .400000000000D+01
16 23  1 18  9 59 44.0 -.523475464433D-03  .125055521494D-11  .000000000000D+00
     .600000000000D+01  .944062500000D+02  .405909764914D-08  .247369706657D+01
     .479258596897D-05  .133199327393D-01  .105947256088D-04  .515377927017D+04
     .295184000000D+06 -.614672899246D-07  .262525548930D+01 -.229105353355D-06
     .966586780528D+00  .178343750000D+03  .753524642640D+00 -.761103131572D-08
    -.206794328100D-09  .100000000000D+01  .224500000000D+04  .000000000000D+00
     .240000000000D+01  .000000000000D+00 -.102445483208D-07  .600000000000D+01
     .289200000000D+06  .400000000000D+01
5  23  1 18  9 59 44.0 -.112434849143D-03 -.147792889038D-11  .000000000000D+00
     .300000000000D+01 -.112593750000D+03  .425624871841D-08  .196672810489D+01
    -.583752989769D-05  .577603338752D-02  .104904174805D-04  .515360316277D+04
     .295184000000D+06 -.763684511185D-07 -.649414651184D+00 -.104308128357D-06
     .964349447745D+00  .180218750000D+03  .113550971902D+01 -.774210820417D-08
     .282868925483D-09  .100000000000D+01  .224500000000D+04  .000000000000D+00
     .240000000000D+01  .000000000000D+00 -.111758708954D-07  .300000000000D+01
     .290700000000D+06  .400000000000D+01
